[{"OBJECT_NAME":"ONEWEB-0321","OBJECT_ID":"2021-083F","EPOCH":"2025-12-25T20:51:56.532384","MEAN_MOTION":13.20771796,"ECCENTRICITY":0.0001778,"INCLINATION":87.9221,"RA_OF_ASC_NODE":309.0017,"ARG_OF_PERICENTER":69.6958,"MEAN_ANOMALY":290.4366,"EPHEMERIS_TYPE":0,"CLASSIFICATION_TYPE":"U","NORAD_CAT_ID":49191,"ELEMENT_SET_NO":999,"REV_AT_EPOCH":21395,"BSTAR":0.0002892,"MEAN_MOTION_DOT":1.31e-6,"MEAN_MOTION_DDOT":0},{"OBJECT_NAME":"ONEWEB-0322","OBJECT_ID":"2021-083G","EPOCH":"2025-12-25T11:17:29.338080","MEAN_MOTION":13.1346777,"ECCENTRICITY":0.0001918,"INCLINATION":87.8969,"RA_OF_ASC_NODE":354.7766,"ARG_OF_PERICENTER":73.6734,"MEAN_ANOMALY":286.4606,"EPHEMERIS_TYPE":0,"CLASSIFICATION_TYPE":"U","NORAD_CAT_ID":49192,"ELEMENT_SET_NO":999,"REV_AT_EPOCH":20811,"BSTAR":-0.00034466,"MEAN_MOTION_DOT":-1.13e-6,"MEAN_MOTION_DDOT":0},{"OBJECT_NAME":"ONEWEB-0324","OBJECT_ID":"2021-083H","EPOCH":"2025-12-25T14:32:57.778656","MEAN_MOTION":13.18686304,"ECCENTRICITY":0.0001611,"INCLINATION":87.9174,"RA_OF_ASC_NODE":9.9182,"ARG_OF_PERICENTER":92.6606,"MEAN_ANOMALY":267.4711,"EPHEMERIS_TYPE":0,"CLASSIFICATION_TYPE":"U","NORAD_CAT_ID":49193,"ELEMENT_SET_NO":999,"REV_AT_EPOCH":20712,"BSTAR":0.00018861,"MEAN_MOTION_DOT":8.7e-7,"MEAN_MOTION_DDOT":0},{"OBJECT_NAME":"ONEWEB-0325","OBJECT_ID":"2021-083J","EPOCH":"2025-12-25T12:48:26.611776","MEAN_MOTION":13.18687401,"ECCENTRICITY":0.0001803,"INCLINATION":87.9173,"RA_OF_ASC_NODE":9.9514,"ARG_OF_PERICENTER":90.2336,"MEAN_ANOMALY":269.9003,"EPHEMERIS_TYPE":0,"CLASSIFICATION_TYPE":"U","NORAD_CAT_ID":49194,"ELEMENT_SET_NO":999,"REV_AT_EPOCH":20712,"BSTAR":0.00010898,"MEAN_MOTION_DOT":5.6e-7,"MEAN_MOTION_DDOT":0},{"OBJECT_NAME":"ONEWEB-0326","OBJECT_ID":"2021-083K","EPOCH":"2025-12-25T11:20:46.430304","MEAN_MOTION":13.18686205,"ECCENTRICITY":0.0002017,"INCLINATION":87.9175,"RA_OF_ASC_NODE":9.9508,"ARG_OF_PERICENTER":98.1155,"MEAN_ANOMALY":262.0206,"EPHEMERIS_TYPE":0,"CLASSIFICATION_TYPE":"U","NORAD_CAT_ID":49195,"ELEMENT_SET_NO":999,"REV_AT_EPOCH":20710,"BSTAR":1.3673e-5,"MEAN_MOTION_DOT":1.8e-7,"MEAN_MOTION_DDOT":0},{"OBJECT_NAME":"ONEWEB-0327","OBJECT_ID":"2021-083L","EPOCH":"2025-12-25T11:20:21.785568","MEAN_MOTION":13.18686813,"ECCENTRICITY":0.0002114,"INCLINATION":87.9165,"RA_OF_ASC_NODE":9.9692,"ARG_OF_PERICENTER":96.4759,"MEAN_ANOMALY":263.6614,"EPHEMERIS_TYPE":0,"CLASSIFICATION_TYPE":"U","NORAD_CAT_ID":49196,"ELEMENT_SET_NO":999,"REV_AT_EPOCH":20712,"BSTAR":0.00010364,"MEAN_MOTION_DOT":5.4e-7,"MEAN_MOTION_DDOT":0},{"OBJECT_NAME":"ONEWEB-0328","OBJECT_ID":"2021-083M","EPOCH":"2025-12-25T12:52:33.631968","MEAN_MOTION":13.13468002,"ECCENTRICITY":0.0001621,"INCLINATION":87.8986,"RA_OF_ASC_NODE":354.7129,"ARG_OF_PERICENTER":89.2907,"MEAN_ANOMALY":270.8407,"EPHEMERIS_TYPE":0,"CLASSIFICATION_TYPE":"U","NORAD_CAT_ID":49197,"ELEMENT_SET_NO":999,"REV_AT_EPOCH":20810,"BSTAR":0.00026703,"MEAN_MOTION_DOT":1.1e-6,"MEAN_MOTION_DDOT":0},{"OBJECT_NAME":"ONEWEB-0331","OBJECT_ID":"2021-083N","EPOCH":"2025-12-25T13:00:19.581120","MEAN_MOTION":13.18686385,"ECCENTRICITY":0.000184,"INCLINATION":87.9181,"RA_OF_ASC_NODE":9.9298,"ARG_OF_PERICENTER":103.6282,"MEAN_ANOMALY":256.5055,"EPHEMERIS_TYPE":0,"CLASSIFICATION_TYPE":"U","NORAD_CAT_ID":49198,"ELEMENT_SET_NO":999,"REV_AT_EPOCH":20712,"BSTAR":-0.00015207,"MEAN_MOTION_DOT":-4.7e-7,"MEAN_MOTION_DDOT":0},{"OBJECT_NAME":"ONEWEB-0333","OBJECT_ID":"2021-083P","EPOCH":"2025-12-25T12:45:15.158016","MEAN_MOTION":13.13467454,"ECCENTRICITY":0.000181,"INCLINATION":87.897,"RA_OF_ASC_NODE":354.7649,"ARG_OF_PERICENTER":87.9469,"MEAN_ANOMALY":272.1867,"EPHEMERIS_TYPE":0,"CLASSIFICATION_TYPE":"U","NORAD_CAT_ID":49199,"ELEMENT_SET_NO":999,"REV_AT_EPOCH":20811,"BSTAR":0.00074488,"MEAN_MOTION_DOT":2.85e-6,"MEAN_MOTION_DDOT":0},{"OBJECT_NAME":"ONEWEB-0334","OBJECT_ID":"2021-083Q","EPOCH":"2025-12-25T19:27:50.711040","MEAN_MOTION":13.20771734,"ECCENTRICITY":0.0002294,"INCLINATION":87.9212,"RA_OF_ASC_NODE":309.0389,"ARG_OF_PERICENTER":54.8134,"MEAN_ANOMALY":305.3214,"EPHEMERIS_TYPE":0,"CLASSIFICATION_TYPE":"U","NORAD_CAT_ID":49200,"ELEMENT_SET_NO":999,"REV_AT_EPOCH":21390,"BSTAR":0.00017642,"MEAN_MOTION_DOT":8.5e-7,"MEAN_MOTION_DDOT":0},{"OBJECT_NAME":"ONEWEB-0335","OBJECT_ID":"2021-083R","EPOCH":"2025-12-25T12:37:56.709120","MEAN_MOTION":13.13467586,"ECCENTRICITY":0.000183,"INCLINATION":87.8969,"RA_OF_ASC_NODE":354.7549,"ARG_OF_PERICENTER":94.6026,"MEAN_ANOMALY":265.5313,"EPHEMERIS_TYPE":0,"CLASSIFICATION_TYPE":"U","NORAD_CAT_ID":49201,"ELEMENT_SET_NO":999,"REV_AT_EPOCH":20812,"BSTAR":0.00073966,"MEAN_MOTION_DOT":2.83e-6,"MEAN_MOTION_DDOT":0},{"OBJECT_NAME":"ONEWEB-0336","OBJECT_ID":"2021-083S","EPOCH":"2025-12-25T10:06:47.244960","MEAN_MOTION":13.13468833,"ECCENTRICITY":0.0001795,"INCLINATION":87.8973,"RA_OF_ASC_NODE":354.7725,"ARG_OF_PERICENTER":102.2368,"MEAN_ANOMALY":257.8962,"EPHEMERIS_TYPE":0,"CLASSIFICATION_TYPE":"U","NORAD_CAT_ID":49202,"ELEMENT_SET_NO":999,"REV_AT_EPOCH":20810,"BSTAR":-0.00036541,"MEAN_MOTION_DOT":-1.21e-6,"MEAN_MOTION_DDOT":0},{"OBJECT_NAME":"ONEWEB-0337","OBJECT_ID":"2021-083T","EPOCH":"2025-12-25T12:10:55.903872","MEAN_MOTION":13.13469988,"ECCENTRICITY":0.0001585,"INCLINATION":87.8972,"RA_OF_ASC_NODE":354.7671,"ARG_OF_PERICENTER":93.189,"MEAN_ANOMALY":266.942,"EPHEMERIS_TYPE":0,"CLASSIFICATION_TYPE":"U","NORAD_CAT_ID":49203,"ELEMENT_SET_NO":999,"REV_AT_EPOCH":20811,"BSTAR":0.00051668,"MEAN_MOTION_DOT":2.01e-6,"MEAN_MOTION_DDOT":0},{"OBJECT_NAME":"ONEWEB-0338","OBJECT_ID":"2021-083U","EPOCH":"2025-12-25T20:40:34.990176","MEAN_MOTION":13.20771665,"ECCENTRICITY":0.000189,"INCLINATION":87.9215,"RA_OF_ASC_NODE":309.0321,"ARG_OF_PERICENTER":70.7235,"MEAN_ANOMALY":289.4103,"EPHEMERIS_TYPE":0,"CLASSIFICATION_TYPE":"U","NORAD_CAT_ID":49204,"ELEMENT_SET_NO":999,"REV_AT_EPOCH":21393,"BSTAR":0.00014212,"MEAN_MOTION_DOT":7.1e-7,"MEAN_MOTION_DDOT":0},{"OBJECT_NAME":"ONEWEB-0339","OBJECT_ID":"2021-083V","EPOCH":"2025-12-25T12:23:19.044096","MEAN_MOTION":13.13469566,"ECCENTRICITY":0.0001599,"INCLINATION":87.8975,"RA_OF_ASC_NODE":354.7479,"ARG_OF_PERICENTER":83.5821,"MEAN_ANOMALY":276.549,"EPHEMERIS_TYPE":0,"CLASSIFICATION_TYPE":"U","NORAD_CAT_ID":49205,"ELEMENT_SET_NO":999,"REV_AT_EPOCH":20809,"BSTAR":0.0012091,"MEAN_MOTION_DOT":4.54e-6,"MEAN_MOTION_DDOT":0},{"OBJECT_NAME":"ONEWEB-0340","OBJECT_ID":"2021-083W","EPOCH":"2025-12-25T12:41:19.686912","MEAN_MOTION":13.18686768,"ECCENTRICITY":0.0001837,"INCLINATION":87.9179,"RA_OF_ASC_NODE":9.937,"ARG_OF_PERICENTER":94.967,"MEAN_ANOMALY":265.1671,"EPHEMERIS_TYPE":0,"CLASSIFICATION_TYPE":"U","NORAD_CAT_ID":49206,"ELEMENT_SET_NO":999,"REV_AT_EPOCH":20708,"BSTAR":-0.00012601,"MEAN_MOTION_DOT":-3.7e-7,"MEAN_MOTION_DDOT":0},{"OBJECT_NAME":"ONEWEB-0341","OBJECT_ID":"2021-083X","EPOCH":"2025-12-25T12:50:49.379136","MEAN_MOTION":13.18686864,"ECCENTRICITY":0.0001279,"INCLINATION":87.9168,"RA_OF_ASC_NODE":9.9474,"ARG_OF_PERICENTER":99.3658,"MEAN_ANOMALY":260.7618,"EPHEMERIS_TYPE":0,"CLASSIFICATION_TYPE":"U","NORAD_CAT_ID":49207,"ELEMENT_SET_NO":999,"REV_AT_EPOCH":20710,"BSTAR":3.2013e-5,"MEAN_MOTION_DOT":2.6e-7,"MEAN_MOTION_DDOT":0}]
