ONEWEB-0321             
1 49191U 21083F   25359.86940431  .00000131  00000+0  28920-3 0  9995
2 49191  87.9221 309.0017 0001778  69.6958 290.4366 13.20771796213954
ONEWEB-0322             
1 49192U 21083G   25359.47047845 -.00000113  00000+0 -34466-3 0  9994
2 49192  87.8969 354.7766 0001918  73.6734 286.4606 13.13467770208114
ONEWEB-0324             
1 49193U 21083H   25359.60622429  .00000087  00000+0  18861-3 0  9996
2 49193  87.9174   9.9182 0001611  92.6606 267.4711 13.18686304207121
ONEWEB-0325             
1 49194U 21083J   25359.53364134  .00000056  00000+0  10898-3 0  9993
2 49194  87.9173   9.9514 0001803  90.2336 269.9003 13.18687401207127
ONEWEB-0326             
1 49195U 21083K   25359.47275961  .00000018  00000+0  13673-4 0  9999
2 49195  87.9175   9.9508 0002017  98.1155 262.0206 13.18686205207105
ONEWEB-0327             
1 49196U 21083L   25359.47247437  .00000054  00000+0  10364-3 0  9990
2 49196  87.9165   9.9692 0002114  96.4759 263.6614 13.18686813207125
ONEWEB-0328             
1 49197U 21083M   25359.53650037  .00000110  00000+0  26703-3 0  9999
2 49197  87.8986 354.7129 0001621  89.2907 270.8407 13.13468002208101
ONEWEB-0331             
1 49198U 21083N   25359.54189330 -.00000047  00000+0 -15207-3 0  9992
2 49198  87.9181   9.9298 0001840 103.6282 256.5055 13.18686385207128
ONEWEB-0333             
1 49199U 21083P   25359.53142544  .00000285  00000+0  74488-3 0  9996
2 49199  87.8970 354.7649 0001810  87.9469 272.1867 13.13467454208117
ONEWEB-0334             
1 49200U 21083Q   25359.81100360  .00000085  00000+0  17642-3 0  9997
2 49200  87.9212 309.0389 0002294  54.8134 305.3214 13.20771734213908
ONEWEB-0335             
1 49201U 21083R   25359.52635080  .00000283  00000+0  73966-3 0  9999
2 49201  87.8969 354.7549 0001830  94.6026 265.5313 13.13467586208123
ONEWEB-0336             
1 49202U 21083S   25359.42138015 -.00000121  00000+0 -36541-3 0  9996
2 49202  87.8973 354.7725 0001795 102.2368 257.8962 13.13468833208108
ONEWEB-0337             
1 49203U 21083T   25359.50759148  .00000201  00000+0  51668-3 0  9996
2 49203  87.8972 354.7671 0001585  93.1890 266.9420 13.13469988208116
ONEWEB-0338             
1 49204U 21083U   25359.86151609  .00000071  00000+0  14212-3 0  9993
2 49204  87.9215 309.0321 0001890  70.7235 289.4103 13.20771665213936
ONEWEB-0339             
1 49205U 21083V   25359.51619264  .00000454  00000+0  12091-2 0  9999
2 49205  87.8975 354.7479 0001599  83.5821 276.5490 13.13469566208092
ONEWEB-0340             
1 49206U 21083W   25359.52870008 -.00000037  00000+0 -12601-3 0  9993
2 49206  87.9179   9.9370 0001837  94.9670 265.1671 13.18686768207085
ONEWEB-0341             
1 49207U 21083X   25359.53529374  .00000026  00000+0  32013-4 0  9998
2 49207  87.9168   9.9474 0001279  99.3658 260.7618 13.18686864207106
